[{"OBJECT_NAME":"STARLINK-4620","OBJECT_ID":"2022-105AC","EPOCH":"2026-03-09T16:06:05.683968","MEAN_MOTION":15.01259647,"ECCENTRICITY":0.0004111,"INCLINATION":97.601,"RA_OF_ASC_NODE":310.1957,"ARG_OF_PERICENTER":45.2183,"MEAN_ANOMALY":314.9376,"EPHEMERIS_TYPE":0,"CLASSIFICATION_TYPE":"U","NORAD_CAT_ID":53674,"ELEMENT_SET_NO":999,"REV_AT_EPOCH":19323,"BSTAR":-1.934145e-6,"MEAN_MOTION_DOT":-8.3e-7,"MEAN_MOTION_DDOT":0},{"OBJECT_NAME":"CZ-4C R\/B","OBJECT_ID":"2022-039B","EPOCH":"2026-03-09T15:51:32.485824","MEAN_MOTION":15.03008334,"ECCENTRICITY":0.0113659,"INCLINATION":98.2525,"RA_OF_ASC_NODE":105.9247,"ARG_OF_PERICENTER":45.8852,"MEAN_ANOMALY":315.1654,"EPHEMERIS_TYPE":0,"CLASSIFICATION_TYPE":"U","NORAD_CAT_ID":52258,"ELEMENT_SET_NO":999,"REV_AT_EPOCH":21291,"BSTAR":0.00022979194,"MEAN_MOTION_DOT":3.483e-5,"MEAN_MOTION_DDOT":0}]
